{"fetched_at":"2026-04-03T05:46:27Z","count":9232,"tles":[{"name":"RASSVET-3 3","line1":"1 68362U 26061C   26090.65752558  .00063107  23369-6  21986-3 0  9995","line2":"2 68362  82.2970  99.7116 0027163  44.7138 315.6316 15.88549972  1266","category":"Other"}]}